{"type": "FeatureCollection", "features": [ {"type": "Feature", "properties": {"norad_id": 66583, "name": "STARLINK-35941", "group": "last-30-days", "lat": -24.86148260507304, "lon": -75.14838115126415, "alt_km": 410.2350316234997, "timestamp": "2025-12-20T14:38:00.687181+00:00", "meta": {"OBJECT_NAME": "STARLINK-35941", "OBJECT_ID": "2025-268AC", "EPOCH": "2025-12-19T16:04:41.529504", "MEAN_MOTION": 15.51345807, "ECCENTRICITY": 0.00013763, "INCLINATION": 42.9996, "RA_OF_ASC_NODE": 80.5444, "ARG_OF_PERICENTER": 334.8074, "MEAN_ANOMALY": 25.2719, "EPHEMERIS_TYPE": 0, "CLASSIFICATION_TYPE": "U", "NORAD_CAT_ID": 66583, "ELEMENT_SET_NO": 999, "REV_AT_EPOCH": 570, "BSTAR": 0.01517546, "MEAN_MOTION_DOT": 0.01004457, "MEAN_MOTION_DDOT": 0}, "tle": {"line1": "1 66583U 25268AC  25353.66992511  .01004457  00000+0  15175-1 0  9998", "line2": "2 66583  42.9996  80.5444 0001376 334.8074  25.2719 15.51345807  5707"}}, "geometry": {"type": "Point", "coordinates": [-75.14838115126415, -24.86148260507304]}}, {"type": "Feature", "properties": {"norad_id": 66584, "name": "STARLINK-35939", "group": "last-30-days", "lat": -23.171937851775546, "lon": -77.61692943973017, "alt_km": 414.6460741557121, "timestamp": "2025-12-20T14:38:00.687192+00:00", "meta": {"OBJECT_NAME": "STARLINK-35939", "OBJECT_ID": "2025-268AD", "EPOCH": "2025-12-19T14:31:27.869088", "MEAN_MOTION": 15.50751867, "ECCENTRICITY": 0.0002615, "INCLINATION": 42.9992, "RA_OF_ASC_NODE": 80.9182, "ARG_OF_PERICENTER": 187.8218, "MEAN_ANOMALY": 172.2602, "EPHEMERIS_TYPE": 0, "CLASSIFICATION_TYPE": "U", "NORAD_CAT_ID": 66584, "ELEMENT_SET_NO": 999, "REV_AT_EPOCH": 569, "BSTAR": 0.0012867, "MEAN_MOTION_DOT": 0.00076356, "MEAN_MOTION_DDOT": 0}, "tle": {"line1": "1 66584U 25268AD  25353.60518367  .00076356  00000+0  12867-2 0  9998", "line2": "2 66584  42.9992  80.9182 0002615 187.8218 172.2602 15.50751867  5698"}}, "geometry": {"type": "Point", "coordinates": [-77.61692943973017, -23.171937851775546]}}, {"type": "Feature", "properties": {"norad_id": 66585, "name": "STARLINK-35963", "group": "last-30-days", "lat": -26.024139878917328, "lon": -73.3746691470026, "alt_km": 415.6968243335823, "timestamp": "2025-12-20T14:38:00.687205+00:00", "meta": {"OBJECT_NAME": "STARLINK-35963", "OBJECT_ID": "2025-268AE", "EPOCH": "2025-12-20T02:52:34.975200", "MEAN_MOTION": 15.51655484, "ECCENTRICITY": 0.00031321, "INCLINATION": 43.0024, "RA_OF_ASC_NODE": 77.9007, "ARG_OF_PERICENTER": 70.9794, "MEAN_ANOMALY": 289.1406, "EPHEMERIS_TYPE": 0, "CLASSIFICATION_TYPE": "U", "NORAD_CAT_ID": 66585, "ELEMENT_SET_NO": 999, "REV_AT_EPOCH": 577, "BSTAR": 0.0020907042, "MEAN_MOTION_DOT": 0.00129249, "MEAN_MOTION_DDOT": 0}, "tle": {"line1": "1 66585U 25268AE  25354.11984925  .00129249  00000+0  20907-2 0  9997", "line2": "2 66585  43.0024  77.9007 0003132  70.9794 289.1406 15.51655484  5773"}}, "geometry": {"type": "Point", "coordinates": [-73.3746691470026, -26.024139878917328]}}, {"type": "Feature", "properties": {"norad_id": 66586, "name": "TJS-21", "group": "last-30-days", "lat": 35.30253680799291, "lon": -39.413014670466566, "alt_km": 19012.848371990203, "timestamp": "2025-12-20T14:38:00.687219+00:00", "meta": {"OBJECT_NAME": "TJS-21", "OBJECT_ID": "2025-269A", "EPOCH": "2025-12-18T16:58:10.473888", "MEAN_MOTION": 2.00580748, "ECCENTRICITY": 0.6806869, "INCLINATION": 63.2733, "RA_OF_ASC_NODE": 161.7218, "ARG_OF_PERICENTER": 269.7428, "MEAN_ANOMALY": 18.6663, "EPHEMERIS_TYPE": 0, "CLASSIFICATION_TYPE": "U", "NORAD_CAT_ID": 66586, "ELEMENT_SET_NO": 999, "REV_AT_EPOCH": 55, "BSTAR": -0.059507049, "MEAN_MOTION_DOT": 1.084e-05, "MEAN_MOTION_DDOT": 0}, "tle": {"line1": "1 66586U 25269A   25352.70706567  .00001084  00000+0 -59507-1 0  9990", "line2": "2 66586  63.2733 161.7218 6806869 269.7428  18.6663  2.00580748   558"}}, "geometry": {"type": "Point", "coordinates": [-39.413014670466566, 35.30253680799291]}}, {"type": "Feature", "properties": {"norad_id": 66587, "name": "CZ-3B R/B", "group": "last-30-days", "lat": -14.14746301578586, "lon": 156.03019471025328, "alt_km": 9421.975143116251, "timestamp": "2025-12-20T14:38:00.687233+00:00", "meta": {"OBJECT_NAME": "CZ-3B R/B", "OBJECT_ID": "2025-269B", "EPOCH": "2025-12-18T04:21:45.908640", "MEAN_MOTION": 2.0405465, "ECCENTRICITY": 0.75166459, "INCLINATION": 51.3412, "RA_OF_ASC_NODE": 168.3764, "ARG_OF_PERICENTER": 229.6756, "MEAN_ANOMALY": 36.1575, "EPHEMERIS_TYPE": 0, "CLASSIFICATION_TYPE": "U", "NORAD_CAT_ID": 66587, "ELEMENT_SET_NO": 999, "REV_AT_EPOCH": 56, "BSTAR": 0.00058948144, "MEAN_MOTION_DOT": 0.0008861, "MEAN_MOTION_DDOT": -1.447425e-06}, "tle": {"line1": "1 66587U 25269B   25352.18178135  .00088610 -14474-5  58948-3 0  9993", "line2": "2 66587  51.3412 168.3764 7516645 229.6756  36.1575  2.04054650   560"}}, "geometry": {"type": "Point", "coordinates": [156.03019471025328, -14.14746301578586]}}, {"type": "Feature", "properties": {"norad_id": 66588, "name": "STARLINK-36076", "group": "last-30-days", "lat": 16.60723556107059, "lon": -51.23971143461329, "alt_km": 441.8884146122882, "timestamp": "2025-12-20T14:38:00.687246+00:00", "meta": {"OBJECT_NAME": "STARLINK-36076", "OBJECT_ID": "2025-270A", "EPOCH": "2025-12-19T19:17:34.645344", "MEAN_MOTION": 15.4070464, "ECCENTRICITY": 0.00021308, "INCLINATION": 42.9989, "RA_OF_ASC_NODE": 152.0729, "ARG_OF_PERICENTER": 265.6518, "MEAN_ANOMALY": 94.4095, "EPHEMERIS_TYPE": 0, "CLASSIFICATION_TYPE": "U", "NORAD_CAT_ID": 66588, "ELEMENT_SET_NO": 999, "REV_AT_EPOCH": 543, "BSTAR": 0.00072750808, "MEAN_MOTION_DOT": 0.00030212, "MEAN_MOTION_DDOT": 0}, "tle": {"line1": "1 66588U 25270A   25353.80387321  .00030212  00000+0  72751-3 0  9991", "line2": "2 66588  42.9989 152.0729 0002130 265.6518  94.4095 15.40704640  5435"}}, "geometry": {"type": "Point", "coordinates": [-51.23971143461329, 16.60723556107059]}}, {"type": "Feature", "properties": {"norad_id": 66589, "name": "STARLINK-35447", "group": "last-30-days", "lat": -41.09623952642185, "lon": 36.585061890095375, "alt_km": 446.4246774288049, "timestamp": "2025-12-20T14:38:00.687259+00:00", "meta": {"OBJECT_NAME": "STARLINK-35447", "OBJECT_ID": "2025-270B", "EPOCH": "2025-12-20T00:00:02.000160", "MEAN_MOTION": 15.40681269, "ECCENTRICITY": 0.0001453, "INCLINATION": 42.9997, "RA_OF_ASC_NODE": 150.7032, "ARG_OF_PERICENTER": 283.5937, "MEAN_ANOMALY": 185.2289, "EPHEMERIS_TYPE": 0, "CLASSIFICATION_TYPE": "U", "NORAD_CAT_ID": 66589, "ELEMENT_SET_NO": 999, "REV_AT_EPOCH": 567, "BSTAR": 0.00095922, "MEAN_MOTION_DOT": 0.0003995, "MEAN_MOTION_DDOT": 0}, "tle": {"line1": "1 66589U 25270B   25354.00002315  .00039950  00000+0  95922-3 0  9995", "line2": "2 66589  42.9997 150.7032 0001453 283.5937 185.2289 15.40681269  5679"}}, "geometry": {"type": "Point", "coordinates": [36.585061890095375, -41.09623952642185]}}, {"type": "Feature", "properties": {"norad_id": 66590, "name": "STARLINK-35429", "group": "last-30-days", "lat": -12.427315513526052, "lon": 133.29900586691025, "alt_km": 444.78263206860265, "timestamp": "2025-12-20T14:38:00.687270+00:00", "meta": {"OBJECT_NAME": "STARLINK-35429", "OBJECT_ID": "2025-270C", "EPOCH": "2025-12-20T06:00:02.999808", "MEAN_MOTION": 15.40685734, "ECCENTRICITY": 0.00017075, "INCLINATION": 43.0002, "RA_OF_ASC_NODE": 149.051, "ARG_OF_PERICENTER": 273.5797, "MEAN_ANOMALY": 230.6619, "EPHEMERIS_TYPE": 0, "CLASSIFICATION_TYPE": "U", "NORAD_CAT_ID": 66590, "ELEMENT_SET_NO": 999, "REV_AT_EPOCH": 571, "BSTAR": 0.00064829241, "MEAN_MOTION_DOT": 0.0002686, "MEAN_MOTION_DDOT": 0}, "tle": {"line1": "1 66590U 25270C   25354.25003472  .00026860  00000+0  64829-3 0  9997", "line2": "2 66590  43.0002 149.0510 0001707 273.5797 230.6619 15.40685734  5715"}}, "geometry": {"type": "Point", "coordinates": [133.29900586691025, -12.427315513526052]}}, {"type": "Feature", "properties": {"norad_id": 66591, "name": "STARLINK-36058", "group": "last-30-days", "lat": 39.19251173581043, "lon": -152.18934908397202, "alt_km": 434.93652042763006, "timestamp": "2025-12-20T14:38:00.687281+00:00", "meta": {"OBJECT_NAME": "STARLINK-36058", "OBJECT_ID": "2025-270D", "EPOCH": "2025-12-20T06:00:02.999808", "MEAN_MOTION": 15.43940024, "ECCENTRICITY": 0.00013207, "INCLINATION": 43.0001, "RA_OF_ASC_NODE": 148.8476, "ARG_OF_PERICENTER": 244.8577, "MEAN_ANOMALY": 342.7195, "EPHEMERIS_TYPE": 0, "CLASSIFICATION_TYPE": "U", "NORAD_CAT_ID": 66591, "ELEMENT_SET_NO": 999, "REV_AT_EPOCH": 560, "BSTAR": -0.057607772, "MEAN_MOTION_DOT": -0.02387381, "MEAN_MOTION_DDOT": 0}, "tle": {"line1": "1 66591U 25270D   25354.25003472 -.02387381  00000+0 -57608-1 0  9995", "line2": "2 66591  43.0001 148.8476 0001320 244.8577 342.7195 15.43940024  5602"}}, "geometry": {"type": "Point", "coordinates": [-152.18934908397202, 39.19251173581043]}}, {"type": "Feature", "properties": {"norad_id": 66592, "name": "STARLINK-36066", "group": "last-30-days", "lat": -16.908852444547126, "lon": -13.654177264541532, "alt_km": 445.2075907250537, "timestamp": "2025-12-20T14:38:00.687291+00:00", "meta": {"OBJECT_NAME": "STARLINK-36066", "OBJECT_ID": "2025-270E", "EPOCH": "2025-12-19T03:31:08.236704", "MEAN_MOTION": 15.40718174, "ECCENTRICITY": 0.00012951, "INCLINATION": 42.9987, "RA_OF_ASC_NODE": 155.7395, "ARG_OF_PERICENTER": 272.062, "MEAN_ANOMALY": 88.0088, "EPHEMERIS_TYPE": 0, "CLASSIFICATION_TYPE": "U", "NORAD_CAT_ID": 66592, "ELEMENT_SET_NO": 999, "REV_AT_EPOCH": 523, "BSTAR": 0.00069686524, "MEAN_MOTION_DOT": 0.00028934, "MEAN_MOTION_DDOT": 0}, "tle": {"line1": "1 66592U 25270E   25353.14662311  .00028934  00000+0  69687-3 0  9990", "line2": "2 66592  42.9987 155.7395 0001295 272.0620  88.0088 15.40718174  5230"}}, "geometry": {"type": "Point", "coordinates": [-13.654177264541532, -16.908852444547126]}}]}